ONEWEB-0531             
1 54146U 22138AK  25279.59876442 -.00000017  00000+0 -72926-4 0  9995
2 54146  87.9234 325.0056 0002770  91.9903 268.1548 13.20770433145838
ONEWEB-0535             
1 54147U 22138AL  25279.92701502  .00000159  00000+0  36599-3 0  9997
2 54147  87.9287 355.3187 0002078  92.1427 267.9944 13.19722859143431
ONEWEB-0536             
1 54148U 22138AM  25279.88916049  .00000004  00000+0 -22763-4 0  9996
2 54148  87.9234 324.9948 0002965  94.9914 265.1558 13.20773029145864
ONEWEB-0527             
1 54642U 22166A   25279.73984680  .00000037  00000+0  57528-4 0  9998
2 54642  87.9168 294.5752 0001888  94.2729 265.8621 13.21824848138052
ONEWEB-0528             
1 54643U 22166B   25279.97323224  .00001012  00000+0  24191-2 0  9998
2 54643  87.9155 294.5316 0001651  93.3425 266.7897 13.21832812138095
ONEWEB-0539             
1 54644U 22166C   25280.00951571  .00000061  00000+0  11517-3 0  9999
2 54644  87.9167 294.4908 0001730  87.8845 272.2487 13.21826604138096
ONEWEB-0540             
1 54645U 22166D   25280.01597727 -.00001318  00000+0 -32242-2 0  9995
2 54645  87.9169 294.5274 0001805  87.3630 272.7711 13.21815035138086
ONEWEB-0542             
1 54646U 22166E   25280.01897154 -.00000383  00000+0 -95783-3 0  9994
2 54646  87.9165 294.4868 0001877  80.6238 279.5108 13.21828076138095
